[{"OBJECT_NAME":"STARLINK-34751","OBJECT_ID":"2025-189R","EPOCH":"2026-03-09T15:55:03.467712","MEAN_MOTION":15.30199121,"ECCENTRICITY":0.0001088,"INCLINATION":53.1582,"RA_OF_ASC_NODE":206.7976,"ARG_OF_PERICENTER":66.0869,"MEAN_ANOMALY":294.0246,"EPHEMERIS_TYPE":0,"CLASSIFICATION_TYPE":"U","NORAD_CAT_ID":65338,"ELEMENT_SET_NO":999,"REV_AT_EPOCH":3110,"BSTAR":0.00081044971,"MEAN_MOTION_DOT":0.0002372,"MEAN_MOTION_DDOT":0},{"OBJECT_NAME":"CZ-4B DEB","OBJECT_ID":"2010-051E","EPOCH":"2026-03-08T22:01:50.125728","MEAN_MOTION":15.23766972,"ECCENTRICITY":0.00561086,"INCLINATION":97.769,"RA_OF_ASC_NODE":240.5013,"ARG_OF_PERICENTER":301.1291,"MEAN_ANOMALY":58.4449,"EPHEMERIS_TYPE":0,"CLASSIFICATION_TYPE":"U","NORAD_CAT_ID":38184,"ELEMENT_SET_NO":999,"REV_AT_EPOCH":82066,"BSTAR":0.0024566319,"MEAN_MOTION_DOT":0.00062123,"MEAN_MOTION_DDOT":0}]
